{
 "type": "FeatureCollection",
 "metadata": {
  "source": "用户自定义 · 非官方数据",
  "basis": "NOTAM C0903/26 (民航华北空管局) — 转述自微信公众号「优凯飞行」2026-09-20 文章",
  "zone_name": "ZB(SR)801",
  "effective_from": "2026-09-20T00:00:00Z",
  "validity": "PERM（原文标注永久，全天24小时）",
  "vertical_limit": "地（水）面至无限高",
  "accuracy_note": "依据转述的圆心+半径生成的近似圆，未取得官方边界矢量，最终以官方发布为准"
 },
 "features": [
  {
   "type": "Feature",
   "properties": {
    "name": "ZB(SR)801 首都禁飞区（近似）",
    "type": "custom_restricted",
    "source": "用户自定义 · 非官方数据",
    "basis": "NOTAM C0903/26 (民航华北空管局) — 转述自微信公众号「优凯飞行」2026-09-20 文章",
    "effective_from": "2026-09-20T00:00:00Z",
    "validity": "PERM（原文标注永久，全天24小时）",
    "vertical_limit": "地（水）面至无限高",
    "center": [
     116.390833,
     39.902778
    ],
    "radius_km": 300.0,
    "accuracy_note": "依据转述的圆心+半径生成的近似圆，未取得官方边界矢量，最终以官方发布为准"
   },
   "geometry": {
    "type": "Polygon",
    "coordinates": [
     [
      [
       116.390833,
       42.600739
      ],
      [
       116.454777,
       42.600311
      ],
      [
       116.518699,
       42.599027
      ],
      [
       116.582576,
       42.596887
      ],
      [
       116.646388,
       42.593892
      ],
      [
       116.710111,
       42.590044
      ],
      [
       116.773725,
       42.585343
      ],
      [
       116.837207,
       42.579792
      ],
      [
       116.900535,
       42.573391
      ],
      [
       116.963687,
       42.566144
      ],
      [
       117.026643,
       42.558052
      ],
      [
       117.08938,
       42.54912
      ],
      [
       117.151877,
       42.539348
      ],
      [
       117.214112,
       42.528742
      ],
      [
       117.276065,
       42.517305
      ],
      [
       117.337714,
       42.50504
      ],
      [
       117.399038,
       42.491952
      ],
      [
       117.460017,
       42.478045
      ],
      [
       117.52063,
       42.463324
      ],
      [
       117.580856,
       42.447795
      ],
      [
       117.640675,
       42.431462
      ],
      [
       117.700067,
       42.414331
      ],
      [
       117.759012,
       42.396408
      ],
      [
       117.81749,
       42.377699
      ],
      [
       117.875482,
       42.358211
      ],
      [
       117.932969,
       42.33795
      ],
      [
       117.989931,
       42.316923
      ],
      [
       118.04635,
       42.295137
      ],
      [
       118.102208,
       42.2726
      ],
      [
       118.157485,
       42.24932
      ],
      [
       118.212163,
       42.225303
      ],
      [
       118.266226,
       42.200559
      ],
      [
       118.319655,
       42.175096
      ],
      [
       118.372434,
       42.148922
      ],
      [
       118.424545,
       42.122046
      ],
      [
       118.475971,
       42.094477
      ],
      [
       118.526697,
       42.066225
      ],
      [
       118.576706,
       42.0373
      ],
      [
       118.625982,
       42.00771
      ],
      [
       118.674511,
       41.977465
      ],
      [
       118.722276,
       41.946577
      ],
      [
       118.769264,
       41.915054
      ],
      [
       118.815459,
       41.882909
      ],
      [
       118.860848,
       41.850151
      ],
      [
       118.905417,
       41.816791
      ],
      [
       118.949152,
       41.78284
      ],
      [
       118.99204,
       41.748311
      ],
      [
       119.034068,
       41.713213
      ],
      [
       119.075225,
       41.677559
      ],
      [
       119.115497,
       41.641361
      ],
      [
       119.154874,
       41.604629
      ],
      [
       119.193343,
       41.567378
      ],
      [
       119.230895,
       41.529618
      ],
      [
       119.267518,
       41.491362
      ],
      [
       119.303201,
       41.452622
      ],
      [
       119.337936,
       41.413412
      ],
      [
       119.371713,
       41.373744
      ],
      [
       119.404521,
       41.33363
      ],
      [
       119.436354,
       41.293085
      ],
      [
       119.467201,
       41.25212
      ],
      [
       119.497056,
       41.21075
      ],
      [
       119.525909,
       41.168987
      ],
      [
       119.553755,
       41.126845
      ],
      [
       119.580587,
       41.084338
      ],
      [
       119.606396,
       41.041478
      ],
      [
       119.631178,
       40.998281
      ],
      [
       119.654927,
       40.954759
      ],
      [
       119.677636,
       40.910927
      ],
      [
       119.699301,
       40.866798
      ],
      [
       119.719918,
       40.822386
      ],
      [
       119.739481,
       40.777706
      ],
      [
       119.757987,
       40.732772
      ],
      [
       119.775431,
       40.687597
      ],
      [
       119.791812,
       40.642197
      ],
      [
       119.807125,
       40.596584
      ],
      [
       119.821369,
       40.550774
      ],
      [
       119.834541,
       40.504781
      ],
      [
       119.846638,
       40.458619
      ],
      [
       119.857661,
       40.412302
      ],
      [
       119.867607,
       40.365845
      ],
      [
       119.876475,
       40.319263
      ],
      [
       119.884265,
       40.272569
      ],
      [
       119.890977,
       40.225778
      ],
      [
       119.896612,
       40.178905
      ],
      [
       119.901168,
       40.131964
      ],
      [
       119.904649,
       40.084969
      ],
      [
       119.907054,
       40.037935
      ],
      [
       119.908385,
       39.990875
      ],
      [
       119.908644,
       39.943805
      ],
      [
       119.907832,
       39.896739
      ],
      [
       119.905954,
       39.849691
      ],
      [
       119.903011,
       39.802675
      ],
      [
       119.899005,
       39.755705
      ],
      [
       119.893942,
       39.708796
      ],
      [
       119.887824,
       39.661962
      ],
      [
       119.880656,
       39.615217
      ],
      [
       119.872441,
       39.568574
      ],
      [
       119.863184,
       39.522048
      ],
      [
       119.85289,
       39.475653
      ],
      [
       119.841564,
       39.429402
      ],
      [
       119.829212,
       39.38331
      ],
      [
       119.815839,
       39.337389
      ],
      [
       119.801451,
       39.291654
      ],
      [
       119.786054,
       39.246118
      ],
      [
       119.769656,
       39.200794
      ],
      [
       119.752262,
       39.155696
      ],
      [
       119.733879,
       39.110838
      ],
      [
       119.714516,
       39.066231
      ],
      [
       119.694178,
       39.02189
      ],
      [
       119.672875,
       38.977828
      ],
      [
       119.650614,
       38.934056
      ],
      [
       119.627404,
       38.890588
      ],
      [
       119.603252,
       38.847437
      ],
      [
       119.578167,
       38.804615
      ],
      [
       119.552159,
       38.762135
      ],
      [
       119.525237,
       38.720008
      ],
      [
       119.497409,
       38.678248
      ],
      [
       119.468686,
       38.636865
      ],
      [
       119.439077,
       38.595872
      ],
      [
       119.408592,
       38.555281
      ],
      [
       119.377242,
       38.515104
      ],
      [
       119.345036,
       38.475351
      ],
      [
       119.311986,
       38.436035
      ],
      [
       119.278102,
       38.397166
      ],
      [
       119.243395,
       38.358756
      ],
      [
       119.207876,
       38.320815
      ],
      [
       119.171557,
       38.283355
      ],
      [
       119.134449,
       38.246386
      ],
      [
       119.096563,
       38.209918
      ],
      [
       119.057913,
       38.173962
      ],
      [
       119.018508,
       38.138528
      ],
      [
       118.978363,
       38.103626
      ],
      [
       118.937489,
       38.069266
      ],
      [
       118.895898,
       38.035457
      ],
      [
       118.853604,
       38.00221
      ],
      [
       118.810619,
       37.969533
      ],
      [
       118.766955,
       37.937435
      ],
      [
       118.722627,
       37.905926
      ],
      [
       118.677647,
       37.875014
      ],
      [
       118.632028,
       37.844709
      ],
      [
       118.585785,
       37.815018
      ],
      [
       118.53893,
       37.785949
      ],
      [
       118.491478,
       37.757512
      ],
      [
       118.443442,
       37.729713
      ],
      [
       118.394836,
       37.702561
      ],
      [
       118.345674,
       37.676064
      ],
      [
       118.295971,
       37.650227
      ],
      [
       118.24574,
       37.62506
      ],
      [
       118.194997,
       37.600568
      ],
      [
       118.143756,
       37.576758
      ],
      [
       118.09203,
       37.553637
      ],
      [
       118.039836,
       37.531212
      ],
      [
       117.987187,
       37.509488
      ],
      [
       117.934099,
       37.488472
      ],
      [
       117.880587,
       37.46817
      ],
      [
       117.826665,
       37.448586
      ],
      [
       117.772349,
       37.429727
      ],
      [
       117.717653,
       37.411597
      ],
      [
       117.662594,
       37.394202
      ],
      [
       117.607186,
       37.377546
      ],
      [
       117.551446,
       37.361634
      ],
      [
       117.495387,
       37.346471
      ],
      [
       117.439026,
       37.33206
      ],
      [
       117.382379,
       37.318405
      ],
      [
       117.325461,
       37.30551
      ],
      [
       117.268288,
       37.29338
      ],
      [
       117.210875,
       37.282016
      ],
      [
       117.153238,
       37.271422
      ],
      [
       117.095393,
       37.261602
      ],
      [
       117.037356,
       37.252557
      ],
      [
       116.979143,
       37.24429
      ],
      [
       116.92077,
       37.236804
      ],
      [
       116.862252,
       37.230101
      ],
      [
       116.803606,
       37.224181
      ],
      [
       116.744847,
       37.219048
      ],
      [
       116.685992,
       37.214702
      ],
      [
       116.627057,
       37.211145
      ],
      [
       116.568057,
       37.208377
      ],
      [
       116.509009,
       37.206399
      ],
      [
       116.449929,
       37.205212
      ],
      [
       116.390833,
       37.204817
      ],
      [
       116.331737,
       37.205212
      ],
      [
       116.272657,
       37.206399
      ],
      [
       116.213609,
       37.208377
      ],
      [
       116.15461,
       37.211145
      ],
      [
       116.095675,
       37.214702
      ],
      [
       116.03682,
       37.219048
      ],
      [
       115.978061,
       37.224181
      ],
      [
       115.919415,
       37.230101
      ],
      [
       115.860897,
       37.236804
      ],
      [
       115.802524,
       37.24429
      ],
      [
       115.744311,
       37.252557
      ],
      [
       115.686274,
       37.261602
      ],
      [
       115.628429,
       37.271422
      ],
      [
       115.570792,
       37.282016
      ],
      [
       115.513379,
       37.29338
      ],
      [
       115.456206,
       37.30551
      ],
      [
       115.399287,
       37.318405
      ],
      [
       115.34264,
       37.33206
      ],
      [
       115.28628,
       37.346471
      ],
      [
       115.230221,
       37.361634
      ],
      [
       115.17448,
       37.377546
      ],
      [
       115.119073,
       37.394202
      ],
      [
       115.064013,
       37.411597
      ],
      [
       115.009318,
       37.429727
      ],
      [
       114.955002,
       37.448586
      ],
      [
       114.90108,
       37.46817
      ],
      [
       114.847567,
       37.488472
      ],
      [
       114.794479,
       37.509488
      ],
      [
       114.741831,
       37.531212
      ],
      [
       114.689636,
       37.553637
      ],
      [
       114.637911,
       37.576758
      ],
      [
       114.586669,
       37.600568
      ],
      [
       114.535926,
       37.62506
      ],
      [
       114.485696,
       37.650227
      ],
      [
       114.435993,
       37.676064
      ],
      [
       114.386831,
       37.702561
      ],
      [
       114.338225,
       37.729713
      ],
      [
       114.290189,
       37.757512
      ],
      [
       114.242737,
       37.785949
      ],
      [
       114.195882,
       37.815018
      ],
      [
       114.149638,
       37.844709
      ],
      [
       114.10402,
       37.875014
      ],
      [
       114.05904,
       37.905926
      ],
      [
       114.014712,
       37.937435
      ],
      [
       113.971048,
       37.969533
      ],
      [
       113.928063,
       38.00221
      ],
      [
       113.885768,
       38.035457
      ],
      [
       113.844178,
       38.069266
      ],
      [
       113.803304,
       38.103626
      ],
      [
       113.763158,
       38.138528
      ],
      [
       113.723754,
       38.173962
      ],
      [
       113.685103,
       38.209918
      ],
      [
       113.647218,
       38.246386
      ],
      [
       113.61011,
       38.283355
      ],
      [
       113.573791,
       38.320815
      ],
      [
       113.538272,
       38.358756
      ],
      [
       113.503565,
       38.397166
      ],
      [
       113.469681,
       38.436035
      ],
      [
       113.436631,
       38.475351
      ],
      [
       113.404425,
       38.515104
      ],
      [
       113.373075,
       38.555281
      ],
      [
       113.34259,
       38.595872
      ],
      [
       113.312981,
       38.636865
      ],
      [
       113.284258,
       38.678248
      ],
      [
       113.25643,
       38.720008
      ],
      [
       113.229507,
       38.762135
      ],
      [
       113.203499,
       38.804615
      ],
      [
       113.178415,
       38.847437
      ],
      [
       113.154263,
       38.890588
      ],
      [
       113.131052,
       38.934056
      ],
      [
       113.108791,
       38.977828
      ],
      [
       113.087488,
       39.02189
      ],
      [
       113.067151,
       39.066231
      ],
      [
       113.047787,
       39.110838
      ],
      [
       113.029405,
       39.155696
      ],
      [
       113.012011,
       39.200794
      ],
      [
       112.995612,
       39.246118
      ],
      [
       112.980216,
       39.291654
      ],
      [
       112.965828,
       39.337389
      ],
      [
       112.952455,
       39.38331
      ],
      [
       112.940103,
       39.429402
      ],
      [
       112.928777,
       39.475653
      ],
      [
       112.918483,
       39.522048
      ],
      [
       112.909226,
       39.568574
      ],
      [
       112.901011,
       39.615217
      ],
      [
       112.893842,
       39.661962
      ],
      [
       112.887725,
       39.708796
      ],
      [
       112.882661,
       39.755705
      ],
      [
       112.878656,
       39.802675
      ],
      [
       112.875713,
       39.849691
      ],
      [
       112.873834,
       39.896739
      ],
      [
       112.873023,
       39.943805
      ],
      [
       112.873282,
       39.990875
      ],
      [
       112.874613,
       40.037935
      ],
      [
       112.877018,
       40.084969
      ],
      [
       112.880498,
       40.131964
      ],
      [
       112.885055,
       40.178905
      ],
      [
       112.890689,
       40.225778
      ],
      [
       112.897402,
       40.272569
      ],
      [
       112.905192,
       40.319263
      ],
      [
       112.91406,
       40.365845
      ],
      [
       112.924006,
       40.412302
      ],
      [
       112.935028,
       40.458619
      ],
      [
       112.947126,
       40.504781
      ],
      [
       112.960298,
       40.550774
      ],
      [
       112.974541,
       40.596584
      ],
      [
       112.989855,
       40.642197
      ],
      [
       113.006235,
       40.687597
      ],
      [
       113.02368,
       40.732772
      ],
      [
       113.042186,
       40.777706
      ],
      [
       113.061749,
       40.822386
      ],
      [
       113.082365,
       40.866798
      ],
      [
       113.104031,
       40.910927
      ],
      [
       113.12674,
       40.954759
      ],
      [
       113.150488,
       40.998281
      ],
      [
       113.17527,
       41.041478
      ],
      [
       113.20108,
       41.084338
      ],
      [
       113.227911,
       41.126845
      ],
      [
       113.255757,
       41.168987
      ],
      [
       113.284611,
       41.21075
      ],
      [
       113.314466,
       41.25212
      ],
      [
       113.345313,
       41.293085
      ],
      [
       113.377145,
       41.33363
      ],
      [
       113.409954,
       41.373744
      ],
      [
       113.44373,
       41.413412
      ],
      [
       113.478465,
       41.452622
      ],
      [
       113.514149,
       41.491362
      ],
      [
       113.550772,
       41.529618
      ],
      [
       113.588323,
       41.567378
      ],
      [
       113.626793,
       41.604629
      ],
      [
       113.666169,
       41.641361
      ],
      [
       113.706442,
       41.677559
      ],
      [
       113.747598,
       41.713213
      ],
      [
       113.789627,
       41.748311
      ],
      [
       113.832515,
       41.78284
      ],
      [
       113.87625,
       41.816791
      ],
      [
       113.920819,
       41.850151
      ],
      [
       113.966207,
       41.882909
      ],
      [
       114.012403,
       41.915054
      ],
      [
       114.05939,
       41.946577
      ],
      [
       114.107156,
       41.977465
      ],
      [
       114.155684,
       42.00771
      ],
      [
       114.204961,
       42.0373
      ],
      [
       114.25497,
       42.066225
      ],
      [
       114.305696,
       42.094477
      ],
      [
       114.357122,
       42.122046
      ],
      [
       114.409233,
       42.148922
      ],
      [
       114.462011,
       42.175096
      ],
      [
       114.515441,
       42.200559
      ],
      [
       114.569503,
       42.225303
      ],
      [
       114.624182,
       42.24932
      ],
      [
       114.679459,
       42.2726
      ],
      [
       114.735316,
       42.295137
      ],
      [
       114.791735,
       42.316923
      ],
      [
       114.848697,
       42.33795
      ],
      [
       114.906184,
       42.358211
      ],
      [
       114.964176,
       42.377699
      ],
      [
       115.022655,
       42.396408
      ],
      [
       115.0816,
       42.414331
      ],
      [
       115.140992,
       42.431462
      ],
      [
       115.200811,
       42.447795
      ],
      [
       115.261037,
       42.463324
      ],
      [
       115.321649,
       42.478045
      ],
      [
       115.382628,
       42.491952
      ],
      [
       115.443953,
       42.50504
      ],
      [
       115.505602,
       42.517305
      ],
      [
       115.567554,
       42.528742
      ],
      [
       115.62979,
       42.539348
      ],
      [
       115.692287,
       42.54912
      ],
      [
       115.755024,
       42.558052
      ],
      [
       115.817979,
       42.566144
      ],
      [
       115.881132,
       42.573391
      ],
      [
       115.94446,
       42.579792
      ],
      [
       116.007942,
       42.585343
      ],
      [
       116.071555,
       42.590044
      ],
      [
       116.135279,
       42.593892
      ],
      [
       116.19909,
       42.596887
      ],
      [
       116.262968,
       42.599027
      ],
      [
       116.32689,
       42.600311
      ],
      [
       116.390833,
       42.600739
      ]
     ]
    ]
   }
  }
 ]
}